BEESAT-4                
1 41619U 16040W   21245.58765928  .00003384  00000-0  13446-3 0  9995
2 41619  97.2632 299.5075 0012048  64.0431 296.2048 15.25919825276779
CAS-2T & KS-1Q          
1 41847U 16066G   21245.42062143  .00000105  00000-0  26432-4 0  9996
2 41847  98.5948 304.8402 0364933 350.8144   8.6485 14.38230893252947
NAYIF-1 (EO-88)         
1 42017U 17008BX  21245.42279267  .00003447  00000-0  12646-3 0  9993
2 42017  97.3105 311.6418 0005862 178.4622 181.6637 15.28619613253011
ZHUHAI-1 02 (CAS-4B)    
1 42759U 17034B   21245.15491809  .00000971  00000-0  71441-4 0  9991
2 42759  43.0178 119.3680 0009730 284.2939 216.6552 15.10337345232743
ZHUHAI-1 01 (CAS-4A)    
1 42761U 17034D   21245.14064192  .00001044  00000-0  75638-4 0  9998
2 42761  43.0178 118.4431 0009961 287.4082 209.2196 15.10426017232747
MAX VALIER SAT          
1 42778U 17036P   21245.59749569  .00001983  00000-0  84959-4 0  9993
2 42778  97.2491 291.6633 0009947 262.5078  97.5030 15.23873442233035
RADFXSAT (FOX-1B)       
1 43017U 17073E   21245.49603316  .00001673  00000-0  13234-3 0  9992
2 43017  97.6980 146.4021 0255759  49.1953 313.1139 14.79684942204515
FOX-1D (AO-92)          
1 43137U 18004AC  21245.47659552  .00002230  00000-0  90732-4 0  9990
2 43137  97.4021 318.7156 0007245 306.0773  53.9794 15.25548982202402
DIWATA-2B               
1 43678U 18084H   21245.52363798  .00000650  00000-0  70171-4 0  9997
2 43678  97.9334  11.2414 0010563 148.9422 211.2413 14.91785712154923
ES'HAIL 2               
1 43700U 18090A   21245.50858220  .00000141  00000-0  00000-0 0  9992
2 43700   0.0145 131.5379 0002202  69.5853 349.6368  1.00272342 10143
FOX-1CLIFF (AO-95)      
1 43770U 18099N   21245.46885787  .00001002  00000-0  95691-4 0  9992
2 43770  97.6596 313.9372 0015262 154.9873 205.2090 14.95405987149965
ITASAT 1                
1 43786U 18099AE  21245.44012762  .00000060  00000-0  10522-4 0  9995
2 43786  97.6617 314.6409 0015870 148.7509 211.4659 14.95690243149991
JY1SAT (JO-97)          
1 43803U 18099AX  21245.45776937  .00000656  00000-0  63554-4 0  9991
2 43803  97.6575 314.4018 0015928 148.7751 211.4420 14.95950738150009
UWE-4                   
1 43880U 18111E   21245.25590039  .00000094  00000-0  13241-4 0  9990
2 43880  97.6795 151.6582 0011359 201.2976 158.7775 14.96960030146573
NEXUS (FO-99)           
1 43937U 19003F   21245.57105361  .00003187  00000-0  12522-3 0  9995
2 43937  97.1710 285.6526 0024813  98.5743 261.8309 15.26102528146025
PSAT2 (NO-104)          
1 44354U 19036R   21245.58456534  .00014778  00000-0  18799-3 0  9997
2 44354  28.5277 331.7952 0316037  34.0362 328.0083 15.16049164120689
BRICSAT2 (NO-103)       
1 44355U 19036S   21245.37246899  .00028944 -56573-5  27610-3 0  9990
2 44355  28.5246 274.3852 0244054 127.4989 234.8061 15.35058173121242
JAISAT-1                
1 44419U 19038F   21245.44331302  .00002384  00000-0  13429-3 0  9996
2 44419  97.5947 209.8991 0022325  49.9954 310.3233 15.13996587119445
DUCHIFAT-3              
1 44854U 19089C   21245.43451618  .00001063  00000-0  91094-4 0  9995
2 44854  36.9673   5.3473 0008431  30.6729 329.4483 14.99601153 94663
CAS-6 (TO-108)          
1 44881U 19093C   21245.53260734  .00000134  00000-0  23906-4 0  9993
2 44881  97.9209 323.5101 0016233  46.2593 313.9971 14.81476160 92149
RS-44 & BREEZE-KM R/B   
1 44909U 19096E   21245.55804388  .00000046  00000-0  14944-3 0  9991
2 44909  82.5187  61.5695 0216377 272.8678  84.7679 12.79710738 78682
ORBITAL FACTORY 2 (OF-2)
1 45113U 19071C   21245.56577395  .00005103  00000-0  15209-3 0  9992
2 45113  51.6430  23.4636 0011410 210.7476 149.2840 15.36379505 89024
HUSKYSAT-1 (HO-107)     
1 45119U 19071J   21245.57690433  .00005427  00000-0  16117-3 0  9996
2 45119  51.6427  22.7806 0010892 207.1911 152.8503 15.36359344 89029
BY70-2                  
1 45857U 20042B   21245.46176679  .00001674  00000-0  24339-3 0  9999
2 45857  97.9810 320.4091 0009817 333.1210  26.9494 14.77238534 62918
SALSAT                  
1 46495U 20068K   21245.39654923 -.00000050  00000-0  91714-6 0  9993
2 46495  97.6944 182.4514 0016546 166.2207 193.9473 15.03523651 50899
BY70-3                  
1 46839U 20079N   21245.48205041  .00004830  00000-0  14804-3 0  9991
2 46839  97.2352 317.8161 0005348 294.1702 122.5636 15.34235784 46010
RADFXSAT-2 (AO-109)     
1 47311U 21002C   21245.55952202  .00002102  00000-0  10158-3 0  9998
2 47311  60.6871   2.4986 0041325  87.5536 273.0280 15.21928531 34606
UVSQ-SAT                
1 47438U 21006AB  21245.41811826  .00001437  00000-0  84234-4 0  9990
2 47438  97.4811 305.2461 0012535 185.2629 174.8472 15.13317676 33692
DIY-1 (ARDUIQUBE)       
1 47963U 21022AH  21245.49519976  .00003145  00000-0  20963-3 0  9996
2 47963  97.5499 146.4537 0021029  44.7927 315.4994 15.07622687 23500
